CTC1_L_00389001-01
1 70260U 26621ZU  26070.40835648  .00000000  00000+0  00000-0 0  9994
2 70260  70.0000   0.0000 0000000   0.0000   0.0000 13.03091871    18
CTC1_L_00389001-02
1 70261U 23248HS  26070.40835648  .00000000  00000+0  00000-0 0  9997
2 70261  70.0000   0.0000 0000000   0.0000  90.0000 13.03091871    18
CTC1_L_00389001-03
1 70262U 23976ZA  26070.40835648  .00000000  00000+0  00000-0 0  9996
2 70262  70.0000   0.0000 0000000   0.0000 180.0000 13.03091871    19
CTC1_L_00389001-04
1 70263U 24018W   26070.40835648  .00000000  00000+0  00000-0 0  9995
2 70263  70.0000   0.0000 0000000   0.0000 270.0000 13.03091871    10
CTC1_L_00389002-01
1 70264U 25064DI  26070.40835648  .00000000  00000+0  00000-0 0  9998
2 70264  70.0000  12.0000 0000000   0.0000  12.0000 13.03091871    18
CTC1_L_00389002-02
1 70265U 25464UK  26070.40835648  .00000000  00000+0  00000-0 0  9993
2 70265  70.0000  12.0000 0000000   0.0000 102.0000 13.03091871    19
CTC1_L_00389002-03
1 70266U 26127DX  26070.40835648  .00000000  00000+0  00000-0 0  9991
2 70266  70.0000  12.0000 0000000   0.0000 192.0000 13.03091871    19
CTC1_L_00389002-04
1 70267U 23538LW  26070.40835648  .00000000  00000+0  00000-0 0  9995
2 70267  70.0000  12.0000 0000000   0.0000 282.0000 13.03091871    10
CTC1_L_00389003-01
1 70268U 26065AB  26070.40835648  .00000000  00000+0  00000-0 0  9994
2 70268  70.0000  24.0000 0000000   0.0000  24.0000 13.03091871    18
CTC1_L_00389003-02
1 70269U 26157SQ  26070.40835648  .00000000  00000+0  00000-0 0  9997
2 70269  70.0000  24.0000 0000000   0.0000 114.0000 13.03091871    19
CTC1_L_00389003-03
1 70270U 22692LX  26070.40835648  .00000000  00000+0  00000-0 0  9999
2 70270  70.0000  24.0000 0000000   0.0000 204.0000 13.03091871    11
CTC1_L_00389003-04
1 70271U 24110YO  26070.40835648  .00000000  00000+0  00000-0 0  9997
2 70271  70.0000  24.0000 0000000   0.0000 294.0000 13.03091871    11
CTC1_L_00389004-01
1 70272U 23087WC  26070.40835648  .00000000  00000+0  00000-0 0  9990
2 70272  70.0000  36.0000 0000000   0.0000  36.0000 13.03091871    19
CTC1_L_00389004-02
1 70273U 24817LX  26070.40835648  .00000000  00000+0  00000-0 0  9993
2 70273  70.0000  36.0000 0000000   0.0000 126.0000 13.03091871    10
CTC1_L_00389004-03
1 70274U 26903SB  26070.40835648  .00000000  00000+0  00000-0 0  9992
2 70274  70.0000  36.0000 0000000   0.0000 216.0000 13.03091871    11
CTC1_L_00389004-04
1 70275U 22912YI  26070.40835648  .00000000  00000+0  00000-0 0  9999
2 70275  70.0000  36.0000 0000000   0.0000 306.0000 13.03091871    12
CTC1_L_00389005-01
1 70276U 26771IY  26070.40835648  .00000000  00000+0  00000-0 0  9997
2 70276  70.0000  48.0000 0000000   0.0000  48.0000 13.03091871    19
CTC1_L_00389005-02
1 70277U 26230DR  26070.40835648  .00000000  00000+0  00000-0 0  9998
2 70277  70.0000  48.0000 0000000   0.0000 138.0000 13.03091871    10
CTC1_L_00389005-03
1 70278U 22061KV  26070.40835648  .00000000  00000+0  00000-0 0  9997
2 70278  70.0000  48.0000 0000000   0.0000 228.0000 13.03091871    11
CTC1_L_00389005-04
1 70279U 26309MT  26070.40835648  .00000000  00000+0  00000-0 0  9997
2 70279  70.0000  48.0000 0000000   0.0000 318.0000 13.03091871    12
CTC1_L_00389006-01
1 70280U 22848DN  26070.40835648  .00000000  00000+0  00000-0 0  9993
2 70280  70.0000  60.0000 0000000   0.0000  60.0000 13.03091871    12
CTC1_L_00389006-02
1 70281U 25303WL  26070.40835648  .00000000  00000+0  00000-0 0  9993
2 70281  70.0000  60.0000 0000000   0.0000 150.0000 13.03091871    13
CTC1_L_00389006-03
1 70282U 25260VZ  26070.40835648  .00000000  00000+0  00000-0 0  9996
2 70282  70.0000  60.0000 0000000   0.0000 240.0000 13.03091871    14
CTC1_L_00389006-04
1 70283U 26523EW  26070.40835648  .00000000  00000+0  00000-0 0  9990
2 70283  70.0000  60.0000 0000000   0.0000 330.0000 13.03091871    15
CTC1_L_00389007-01
1 70284U 26070MW  26070.40835648  .00000000  00000+0  00000-0 0  9998
2 70284  70.0000  72.0000 0000000   0.0000  72.0000 13.03091871    12
CTC1_L_00389007-02
1 70285U 25754HD  26070.40835648  .00000000  00000+0  00000-0 0  9997
2 70285  70.0000  72.0000 0000000   0.0000 162.0000 13.03091871    13
CTC1_L_00389007-03
1 70286U 24058ET  26070.40835648  .00000000  00000+0  00000-0 0  9994
2 70286  70.0000  72.0000 0000000   0.0000 252.0000 13.03091871    14
CTC1_L_00389007-04
1 70287U 23459YD  26070.40835648  .00000000  00000+0  00000-0 0  9999
2 70287  70.0000  72.0000 0000000   0.0000 342.0000 13.03091871    15
CTC1_L_00389008-01
1 70288U 24449KT  26070.40835648  .00000000  00000+0  00000-0 0  9990
2 70288  70.0000  84.0000 0000000   0.0000  84.0000 13.03091871    12
CTC1_L_00389008-02
1 70289U 24315KK  26070.40835648  .00000000  00000+0  00000-0 0  9993
2 70289  70.0000  84.0000 0000000   0.0000 174.0000 13.03091871    13
CTC1_L_00389008-03
1 70290U 23081KW  26070.40835648  .00000000  00000+0  00000-0 0  9994
2 70290  70.0000  84.0000 0000000   0.0000 264.0000 13.03091871    15
CTC1_L_00389008-04
1 70291U 23583XF  26070.40835648  .00000000  00000+0  00000-0 0  9992
2 70291  70.0000  84.0000 0000000   0.0000 354.0000 13.03091871    16
CTC1_L_00389009-01
1 70292U 23086PC  26070.40835648  .00000000  00000+0  00000-0 0  9991
2 70292  70.0000  96.0000 0000000   0.0000  96.0000 13.03091871    13
CTC1_L_00389009-02
1 70293U 23490IB  26070.40835648  .00000000  00000+0  00000-0 0  9991
2 70293  70.0000  96.0000 0000000   0.0000 186.0000 13.03091871    14
CTC1_L_00389009-03
1 70294U 26987CL  26070.40835648  .00000000  00000+0  00000-0 0  9996
2 70294  70.0000  96.0000 0000000   0.0000 276.0000 13.03091871    15
CTC1_L_00389009-04
1 70295U 22467AR  26070.40835648  .00000000  00000+0  00000-0 0  9996
2 70295  70.0000  96.0000 0000000   0.0000   6.0000 13.03091871    17
CTC1_L_00389010-01
1 70296U 22387I   26070.40835648  .00000000  00000+0  00000-0 0  9998
2 70296  70.0000 108.0000 0000000   0.0000 108.0000 13.03091871    15
CTC1_L_00389010-02
1 70297U 23045QB  26070.40835648  .00000000  00000+0  00000-0 0  9991
2 70297  70.0000 108.0000 0000000   0.0000 198.0000 13.03091871    15
CTC1_L_00389010-03
1 70298U 25496PY  26070.40835648  .00000000  00000+0  00000-0 0  9994
2 70298  70.0000 108.0000 0000000   0.0000 288.0000 13.03091871    16
CTC1_L_00389010-04
1 70299U 24148CU  26070.40835648  .00000000  00000+0  00000-0 0  9998
2 70299  70.0000 108.0000 0000000   0.0000  18.0000 13.03091871    18
CTC1_L_00389011-01
1 70300U 25485UP  26070.40835648  .00000000  00000+0  00000-0 0  9996
2 70300  70.0000 120.0000 0000000   0.0000 120.0000 13.03091871    19
CTC1_L_00389011-02
1 70301U 25456JT  26070.40835648  .00000000  00000+0  00000-0 0  9995
2 70301  70.0000 120.0000 0000000   0.0000 210.0000 13.03091871    10
CTC1_L_00389011-03
1 70302U 24627MA  26070.40835648  .00000000  00000+0  00000-0 0  9995
2 70302  70.0000 120.0000 0000000   0.0000 300.0000 13.03091871    11
CTC1_L_00389011-04
1 70303U 25083AR  26070.40835648  .00000000  00000+0  00000-0 0  9993
2 70303  70.0000 120.0000 0000000   0.0000  30.0000 13.03091871    12
CTC1_L_00389012-01
1 70304U 24770MT  26070.40835648  .00000000  00000+0  00000-0 0  9996
2 70304  70.0000 132.0000 0000000   0.0000 132.0000 13.03091871    19
CTC1_L_00389012-02
1 70305U 26610NG  26070.40835648  .00000000  00000+0  00000-0 0  9992
2 70305  70.0000 132.0000 0000000   0.0000 222.0000 13.03091871    10
CTC1_L_00389012-03
1 70306U 25374OC  26070.40835648  .00000000  00000+0  00000-0 0  9999
2 70306  70.0000 132.0000 0000000   0.0000 312.0000 13.03091871    11
CTC1_L_00389012-04
1 70307U 26460BE  26070.40835648  .00000000  00000+0  00000-0 0  9997
2 70307  70.0000 132.0000 0000000   0.0000  42.0000 13.03091871    12
CTC1_L_00389013-01
1 70308U 26876BG  26070.40835648  .00000000  00000+0  00000-0 0  9999
2 70308  70.0000 144.0000 0000000   0.0000 144.0000 13.03091871    19
CTC1_L_00389013-02
1 70309U 25157AS  26070.40835648  .00000000  00000+0  00000-0 0  9991
2 70309  70.0000 144.0000 0000000   0.0000 234.0000 13.03091871    10
CTC1_L_00389013-03
1 70310U 24221SB  26070.40835648  .00000000  00000+0  00000-0 0  9994
2 70310  70.0000 144.0000 0000000   0.0000 324.0000 13.03091871    12
CTC1_L_00389013-04
1 70311U 24529KH  26070.40835648  .00000000  00000+0  00000-0 0  9996
2 70311  70.0000 144.0000 0000000   0.0000  54.0000 13.03091871    13
CTC1_L_00389014-01
1 70312U 25620MN  26070.40835648  .00000000  00000+0  00000-0 0  9990
2 70312  70.0000 156.0000 0000000   0.0000 156.0000 13.03091871    10
CTC1_L_00389014-02
1 70313U 24859ZE  26070.40835648  .00000000  00000+0  00000-0 0  9994
2 70313  70.0000 156.0000 0000000   0.0000 246.0000 13.03091871    11
CTC1_L_00389014-03
1 70314U 24819KZ  26070.40835648  .00000000  00000+0  00000-0 0  9991
2 70314  70.0000 156.0000 0000000   0.0000 336.0000 13.03091871    12
CTC1_L_00389014-04
1 70315U 25163HK  26070.40835648  .00000000  00000+0  00000-0 0  9995
2 70315  70.0000 156.0000 0000000   0.0000  66.0000 13.03091871    13
CTC1_L_00389015-01
1 70316U 25262UG  26070.40835648  .00000000  00000+0  00000-0 0  9996
2 70316  70.0000 168.0000 0000000   0.0000 168.0000 13.03091871    10
CTC1_L_00389015-02
1 70317U 23885FJ  26070.40835648  .00000000  00000+0  00000-0 0  9996
2 70317  70.0000 168.0000 0000000   0.0000 258.0000 13.03091871    11
CTC1_L_00389015-03
1 70318U 22563PK  26070.40835648  .00000000  00000+0  00000-0 0  9999
2 70318  70.0000 168.0000 0000000   0.0000 348.0000 13.03091871    12
CTC1_L_00389015-04
1 70319U 22628CI  26070.40835648  .00000000  00000+0  00000-0 0  9992
2 70319  70.0000 168.0000 0000000   0.0000  78.0000 13.03091871    13
CTC1_L_00389016-01
1 70320U 26544IE  26070.40835648  .00000000  00000+0  00000-0 0  9995
2 70320  70.0000 180.0000 0000000   0.0000 180.0000 13.03091871    13
CTC1_L_00389016-02
1 70321U 26555LM  26070.40835648  .00000000  00000+0  00000-0 0  9998
2 70321  70.0000 180.0000 0000000   0.0000 270.0000 13.03091871    14
